[{"OBJECT_NAME":"NESS","OBJECT_ID":"2023-155E","EPOCH":"2026-03-09T18:20:54.923712","MEAN_MOTION":15.26794015,"ECCENTRICITY":0.00068914,"INCLINATION":97.5941,"RA_OF_ASC_NODE":152.6141,"ARG_OF_PERICENTER":179.8776,"MEAN_ANOMALY":180.2465,"EPHEMERIS_TYPE":0,"CLASSIFICATION_TYPE":"U","NORAD_CAT_ID":58020,"ELEMENT_SET_NO":999,"REV_AT_EPOCH":13330,"BSTAR":0.00074047066,"MEAN_MOTION_DOT":0.00019469,"MEAN_MOTION_DDOT":0},{"OBJECT_NAME":"STARLINK-31458","OBJECT_ID":"2024-071T","EPOCH":"2026-03-09T03:25:41.763072","MEAN_MOTION":15.27563458,"ECCENTRICITY":9.83e-5,"INCLINATION":43.0047,"RA_OF_ASC_NODE":342.6879,"ARG_OF_PERICENTER":249.2821,"MEAN_ANOMALY":110.7925,"EPHEMERIS_TYPE":0,"CLASSIFICATION_TYPE":"U","NORAD_CAT_ID":59501,"ELEMENT_SET_NO":999,"REV_AT_EPOCH":10812,"BSTAR":-0.00013457073,"MEAN_MOTION_DOT":-3.961e-5,"MEAN_MOTION_DDOT":0}]
