NESS                    
1 58020U 23155E   26068.76452457  .00019469  00000+0  74047-3 0  9996
2 58020  97.5941 152.6141 0006891 179.8776 180.2465 15.26794015133307
STARLINK-31458          
1 59501U 24071T   26068.14284448 -.00003961  00000+0 -13457-3 0  9994
2 59501  43.0047 342.6879 0000983 249.2821 110.7925 15.27563458108120
